{"type": "FeatureCollection", "features": [ {"type": "Feature", "properties": {"norad_id": 32241, "name": "FENGYUN 1C DEB", "group": "fengyun-1c-debris", "lat": 7.902125483759221, "lon": 30.431152550184134, "alt_km": 901.6538427219202, "timestamp": "2025-12-27T15:27:11.476983+00:00", "meta": {"OBJECT_NAME": "FENGYUN 1C DEB", "OBJECT_ID": "1999-025CWP", "EPOCH": "2025-12-22T19:26:55.545504", "MEAN_MOTION": 14.28813741, "ECCENTRICITY": 0.01466316, "INCLINATION": 99.0757, "RA_OF_ASC_NODE": 26.6735, "ARG_OF_PERICENTER": 194.5712, "MEAN_ANOMALY": 165.1219, "EPHEMERIS_TYPE": 0, "CLASSIFICATION_TYPE": "U", "NORAD_CAT_ID": 32241, "ELEMENT_SET_NO": 999, "REV_AT_EPOCH": 93967, "BSTAR": 0.0013225361, "MEAN_MOTION_DOT": 3.694e-05, "MEAN_MOTION_DDOT": 0}, "tle": {"line1": "1 32241U 99025CWP 25356.81036511  .00003694  00000+0  13225-2 0  9999", "line2": "2 32241  99.0757  26.6735 0146631 194.5712 165.1219 14.28813741939678"}}, "geometry": {"type": "Point", "coordinates": [30.431152550184134, 7.902125483759221]}}, {"type": "Feature", "properties": {"norad_id": 32243, "name": "FENGYUN 1C DEB", "group": "fengyun-1c-debris", "lat": 76.85038308394493, "lon": -116.54837742575987, "alt_km": 685.2168587373244, "timestamp": "2025-12-27T15:27:11.476993+00:00", "meta": {"OBJECT_NAME": "FENGYUN 1C DEB", "OBJECT_ID": "1999-025CWR", "EPOCH": "2025-12-24T13:29:19.216608", "MEAN_MOTION": 14.04698676, "ECCENTRICITY": 0.02689617, "INCLINATION": 98.2678, "RA_OF_ASC_NODE": 22.149, "ARG_OF_PERICENTER": 89.9627, "MEAN_ANOMALY": 273.2359, "EPHEMERIS_TYPE": 0, "CLASSIFICATION_TYPE": "U", "NORAD_CAT_ID": 32243, "ELEMENT_SET_NO": 999, "REV_AT_EPOCH": 93754, "BSTAR": 0.0020051854, "MEAN_MOTION_DOT": 4.402e-05, "MEAN_MOTION_DDOT": 0}, "tle": {"line1": "1 32243U 99025CWR 25358.56202797  .00004402  00000+0  20052-2 0  9990", "line2": "2 32243  98.2678  22.1490 0268961  89.9627 273.2359 14.04698676937547"}}, "geometry": {"type": "Point", "coordinates": [-116.54837742575987, 76.85038308394493]}}, {"type": "Feature", "properties": {"norad_id": 32245, "name": "FENGYUN 1C DEB", "group": "fengyun-1c-debris", "lat": -68.45602045915814, "lon": -138.53405012680474, "alt_km": 577.7898883949492, "timestamp": "2025-12-27T15:27:11.477003+00:00", "meta": {"OBJECT_NAME": "FENGYUN 1C DEB", "OBJECT_ID": "1999-025CWT", "EPOCH": "2025-12-23T19:06:09.631584", "MEAN_MOTION": 14.77154099, "ECCENTRICITY": 0.00966875, "INCLINATION": 98.6537, "RA_OF_ASC_NODE": 194.6492, "ARG_OF_PERICENTER": 306.9863, "MEAN_ANOMALY": 52.2524, "EPHEMERIS_TYPE": 0, "CLASSIFICATION_TYPE": "U", "NORAD_CAT_ID": 32245, "ELEMENT_SET_NO": 999, "REV_AT_EPOCH": 66269, "BSTAR": 0.0012005122, "MEAN_MOTION_DOT": 9.119e-05, "MEAN_MOTION_DDOT": 0}, "tle": {"line1": "1 32245U 99025CWT 25357.79594481  .00009119  00000+0  12005-2 0  9999", "line2": "2 32245  98.6537 194.6492 0096687 306.9863  52.2524 14.77154099662698"}}, "geometry": {"type": "Point", "coordinates": [-138.53405012680474, -68.45602045915814]}}, {"type": "Feature", "properties": {"norad_id": 32304, "name": "FENGYUN 1C DEB", "group": "fengyun-1c-debris", "lat": -45.18602623436657, "lon": -32.466920375360715, "alt_km": 753.9296185741259, "timestamp": "2025-12-27T15:27:11.477013+00:00", "meta": {"OBJECT_NAME": "FENGYUN 1C DEB", "OBJECT_ID": "1999-025CWV", "EPOCH": "2025-12-27T02:25:26.652288", "MEAN_MOTION": 14.50701816, "ECCENTRICITY": 0.00496587, "INCLINATION": 99.3996, "RA_OF_ASC_NODE": 317.3297, "ARG_OF_PERICENTER": 182.8322, "MEAN_ANOMALY": 177.2595, "EPHEMERIS_TYPE": 0, "CLASSIFICATION_TYPE": "U", "NORAD_CAT_ID": 32304, "ELEMENT_SET_NO": 999, "REV_AT_EPOCH": 56481, "BSTAR": 0.0014323152, "MEAN_MOTION_DOT": 5.667e-05, "MEAN_MOTION_DDOT": 0}, "tle": {"line1": "1 32304U 99025CWV 25361.10100292  .00005667  00000+0  14323-2 0  9997", "line2": "2 32304  99.3996 317.3297 0049658 182.8322 177.2595 14.50701816564812"}}, "geometry": {"type": "Point", "coordinates": [-32.466920375360715, -45.18602623436657]}}, {"type": "Feature", "properties": {"norad_id": 32308, "name": "FENGYUN 1C DEB", "group": "fengyun-1c-debris", "lat": -43.548745051275446, "lon": 59.89486908605071, "alt_km": 842.895489490731, "timestamp": "2025-12-27T15:27:11.477023+00:00", "meta": {"OBJECT_NAME": "FENGYUN 1C DEB", "OBJECT_ID": "1999-025CWZ", "EPOCH": "2025-12-24T02:14:10.219776", "MEAN_MOTION": 14.05552927, "ECCENTRICITY": 0.01076508, "INCLINATION": 97.7728, "RA_OF_ASC_NODE": 49.387, "ARG_OF_PERICENTER": 27.4361, "MEAN_ANOMALY": 333.2438, "EPHEMERIS_TYPE": 0, "CLASSIFICATION_TYPE": "U", "NORAD_CAT_ID": 32308, "ELEMENT_SET_NO": 999, "REV_AT_EPOCH": 65571, "BSTAR": 0.0016207472, "MEAN_MOTION_DOT": 2.742e-05, "MEAN_MOTION_DDOT": 0}, "tle": {"line1": "1 32308U 99025CWZ 25358.09317384  .00002742  00000+0  16207-2 0  9991", "line2": "2 32308  97.7728  49.3870 0107650  27.4361 333.2438 14.05552927655711"}}, "geometry": {"type": "Point", "coordinates": [59.89486908605071, -43.548745051275446]}}, {"type": "Feature", "properties": {"norad_id": 32314, "name": "FENGYUN 1C DEB", "group": "fengyun-1c-debris", "lat": -11.240525289926122, "lon": -73.55672999422231, "alt_km": 615.3519043471651, "timestamp": "2025-12-27T15:27:11.477034+00:00", "meta": {"OBJECT_NAME": "FENGYUN 1C DEB", "OBJECT_ID": "1999-025CXF", "EPOCH": "2025-12-24T00:35:54.225888", "MEAN_MOTION": 14.79780082, "ECCENTRICITY": 0.01485363, "INCLINATION": 98.8637, "RA_OF_ASC_NODE": 104.2292, "ARG_OF_PERICENTER": 122.2161, "MEAN_ANOMALY": 239.3548, "EPHEMERIS_TYPE": 0, "CLASSIFICATION_TYPE": "U", "NORAD_CAT_ID": 32314, "ELEMENT_SET_NO": 999, "REV_AT_EPOCH": 97597, "BSTAR": 0.0012677731, "MEAN_MOTION_DOT": 0.00011459, "MEAN_MOTION_DDOT": 0}, "tle": {"line1": "1 32314U 99025CXF 25358.02493317  .00011459  00000+0  12678-2 0  9995", "line2": "2 32314  98.8637 104.2292 0148536 122.2161 239.3548 14.79780082975975"}}, "geometry": {"type": "Point", "coordinates": [-73.55672999422231, -11.240525289926122]}}, {"type": "Feature", "properties": {"norad_id": 32316, "name": "FENGYUN 1C DEB", "group": "fengyun-1c-debris", "lat": 24.29554119515768, "lon": -145.56164453960406, "alt_km": 730.0336629636058, "timestamp": "2025-12-27T15:27:11.477045+00:00", "meta": {"OBJECT_NAME": "FENGYUN 1C DEB", "OBJECT_ID": "1999-025CXH", "EPOCH": "2025-12-26T00:50:51.058752", "MEAN_MOTION": 14.52040416, "ECCENTRICITY": 0.00264829, "INCLINATION": 99.5277, "RA_OF_ASC_NODE": 28.2675, "ARG_OF_PERICENTER": 288.9464, "MEAN_ANOMALY": 102.6722, "EPHEMERIS_TYPE": 0, "CLASSIFICATION_TYPE": "U", "NORAD_CAT_ID": 32316, "ELEMENT_SET_NO": 999, "REV_AT_EPOCH": 95970, "BSTAR": 0.0017127296, "MEAN_MOTION_DOT": 6.906e-05, "MEAN_MOTION_DDOT": 0}, "tle": {"line1": "1 32316U 99025CXH 25360.03531318  .00006906  00000+0  17127-2 0  9990", "line2": "2 32316  99.5277  28.2675 0026482 288.9464 102.6722 14.52040416959706"}}, "geometry": {"type": "Point", "coordinates": [-145.56164453960406, 24.29554119515768]}}, {"type": "Feature", "properties": {"norad_id": 32320, "name": "FENGYUN 1C DEB", "group": "fengyun-1c-debris", "lat": -56.7061640468838, "lon": -122.06148910758832, "alt_km": 760.5041287304721, "timestamp": "2025-12-27T15:27:11.477054+00:00", "meta": {"OBJECT_NAME": "FENGYUN 1C DEB", "OBJECT_ID": "1999-025CXM", "EPOCH": "2025-12-22T13:40:01.485696", "MEAN_MOTION": 14.36184874, "ECCENTRICITY": 0.00563271, "INCLINATION": 100.3743, "RA_OF_ASC_NODE": 215.6434, "ARG_OF_PERICENTER": 20.562, "MEAN_ANOMALY": 339.7809, "EPHEMERIS_TYPE": 0, "CLASSIFICATION_TYPE": "U", "NORAD_CAT_ID": 32320, "ELEMENT_SET_NO": 999, "REV_AT_EPOCH": 62314, "BSTAR": 0.00080066541, "MEAN_MOTION_DOT": 2.318e-05, "MEAN_MOTION_DDOT": 0}, "tle": {"line1": "1 32320U 99025CXM 25356.56946164  .00002318  00000+0  80067-3 0  9994", "line2": "2 32320 100.3743 215.6434 0056327  20.5620 339.7809 14.36184874623144"}}, "geometry": {"type": "Point", "coordinates": [-122.06148910758832, -56.7061640468838]}}, {"type": "Feature", "properties": {"norad_id": 32322, "name": "FENGYUN 1C DEB", "group": "fengyun-1c-debris", "lat": -42.673015250397114, "lon": -111.11854067091866, "alt_km": 1197.0075427727306, "timestamp": "2025-12-27T15:27:11.477065+00:00", "meta": {"OBJECT_NAME": "FENGYUN 1C DEB", "OBJECT_ID": "1999-025CXP", "EPOCH": "2025-12-21T10:17:00.184704", "MEAN_MOTION": 13.34155768, "ECCENTRICITY": 0.04195743, "INCLINATION": 98.3703, "RA_OF_ASC_NODE": 235.9789, "ARG_OF_PERICENTER": 75.736, "MEAN_ANOMALY": 288.998, "EPHEMERIS_TYPE": 0, "CLASSIFICATION_TYPE": "U", "NORAD_CAT_ID": 32322, "ELEMENT_SET_NO": 999, "REV_AT_EPOCH": 60495, "BSTAR": 0.0012702386, "MEAN_MOTION_DOT": 1.01e-05, "MEAN_MOTION_DDOT": 0}, "tle": {"line1": "1 32322U 99025CXP 25355.42847436  .00001010  00000+0  12702-2 0  9990", "line2": "2 32322  98.3703 235.9789 0419574  75.7360 288.9980 13.34155768604956"}}, "geometry": {"type": "Point", "coordinates": [-111.11854067091866, -42.673015250397114]}}, {"type": "Feature", "properties": {"norad_id": 32323, "name": "FENGYUN 1C DEB", "group": "fengyun-1c-debris", "lat": -81.4190280458608, "lon": -128.20016676222906, "alt_km": 933.8570265468206, "timestamp": "2025-12-27T15:27:11.477075+00:00", "meta": {"OBJECT_NAME": "FENGYUN 1C DEB", "OBJECT_ID": "1999-025CXQ", "EPOCH": "2025-12-19T15:19:13.533312", "MEAN_MOTION": 13.96612746, "ECCENTRICITY": 0.015623, "INCLINATION": 98.5704, "RA_OF_ASC_NODE": 136.3682, "ARG_OF_PERICENTER": 190.9743, "MEAN_ANOMALY": 168.7999, "EPHEMERIS_TYPE": 0, "CLASSIFICATION_TYPE": "U", "NORAD_CAT_ID": 32323, "ELEMENT_SET_NO": 999, "REV_AT_EPOCH": 60366, "BSTAR": 0.0022503, "MEAN_MOTION_DOT": 3.415e-05, "MEAN_MOTION_DDOT": 0}, "tle": {"line1": "1 32323U 99025CXQ 25353.63835108  .00003415  00000+0  22503-2 0  9996", "line2": "2 32323  98.5704 136.3682 0156230 190.9743 168.7999 13.96612746603662"}}, "geometry": {"type": "Point", "coordinates": [-128.20016676222906, -81.4190280458608]}}]}